STARLINK-34994          
1 65924U 25225Q   26083.46631414  .00012790  00000+0  44304-3 0  9996
2 65924  53.1576  96.8160 0001113  80.4270 279.6856 15.30211033 26675
STARLINK-35458          
1 65925U 25225R   26083.45997984  .00005418  00000+0  19492-3 0  9992
2 65925  53.1582  96.7766 0000893 101.4426 258.6675 15.30198748 26678
STARLINK-35492          
1 65926U 25225S   26083.33252178  .00015746  00000+0  54276-3 0  9993
2 65926  53.1587  97.4011 0001132  81.4375 278.6754 15.30192049 26658
STARLINK-35494          
1 65927U 25225T   26083.44954446  .00013114  00000+0  45398-3 0  9995
2 65927  53.1591  97.4208 0001442  77.8090 282.3072 15.30209863 26668
STARLINK-35493          
1 65928U 25225U   26083.30308817  .00017198  00000+0  59109-3 0  9997
2 65928  53.1598  97.9271 0001707  91.7681 268.3515 15.30219368 26641
STARLINK-35175          
1 65929U 25225V   26083.35468778  .00011516  00000+0  40033-3 0  9990
2 65929  53.1594  97.5397 0001472  75.0895 285.0268 15.30199378 26654
STARLINK-35513          
1 65930U 25225W   26083.43688285  .00018322  00000+0  62874-3 0  9997
2 65930  53.1603  97.3418 0001464  93.2220 266.8948 15.30223738 26665
STARLINK-35526          
1 65931U 25225X   26083.35152610  .00012440  00000+0  43128-3 0  9993
2 65931  53.1595  97.5206 0001353  86.5988 273.5168 15.30210946 26651
STARLINK-35436          
1 65932U 25225Y   26083.34836016  .00011098  00000+0  38617-3 0  9997
2 65932  53.1591  97.5006 0001204  96.6921 263.4217 15.30206204 26655
STARLINK-35192          
1 65933U 25225Z   26083.44849218  .00019288  00000+0  66123-3 0  9999
2 65933  53.1594  97.4132 0001447  84.7780 275.3386 15.30220925 26664
STARLINK-33921          
1 65934U 25225AA  26083.21138829  .00017365  00000+0  59723-3 0  9996
2 65934  53.1591  98.0666 0001237  96.3561 263.7581 15.30190610 25747
STARLINK-35155          
1 65935U 25225AB  26083.43583020  .00017912  00000+0  61502-3 0  9994
2 65935  53.1606  97.3339 0001590  92.3967 267.7215 15.30221016 25778
STARLINK-35161          
1 65936U 25225AC  26083.44530550  .00014359  00000+0  49651-3 0  9999
2 65936  53.1597  97.3923 0001774  93.0281 267.0923 15.30165673 25773
STARLINK-35473          
1 65937U 25225AD  26083.44216056  .00019357  00000+0  66350-3 0  9990
2 65937  53.1600  97.3733 0001503  78.8556 281.2614 15.30222424 25777
STARLINK-34849          
1 66005U 25232A   26083.18813349  .00022446  00000+0  76768-3 0  9991
2 66005  53.1631  36.6892 0001086  86.8177 273.2948 15.30200295 25643
STARLINK-35336          
1 66006U 25232B   26083.14169897  .00027212  00000+0  92753-3 0  9998
2 66006  53.1615  36.3961 0001316  88.9315 271.1836 15.30200156 25642
