[{"OBJECT_NAME":"STARLINK-34994","OBJECT_ID":"2025-225Q","EPOCH":"2026-03-24T11:11:29.541696","MEAN_MOTION":15.30211033,"ECCENTRICITY":0.0001113,"INCLINATION":53.1576,"RA_OF_ASC_NODE":96.816,"ARG_OF_PERICENTER":80.427,"MEAN_ANOMALY":279.6856,"EPHEMERIS_TYPE":0,"CLASSIFICATION_TYPE":"U","NORAD_CAT_ID":65924,"ELEMENT_SET_NO":999,"REV_AT_EPOCH":2667,"BSTAR":0.00044304,"MEAN_MOTION_DOT":0.0001279,"MEAN_MOTION_DDOT":0},{"OBJECT_NAME":"STARLINK-35458","OBJECT_ID":"2025-225R","EPOCH":"2026-03-24T11:02:22.258176","MEAN_MOTION":15.30198748,"ECCENTRICITY":8.93e-5,"INCLINATION":53.1582,"RA_OF_ASC_NODE":96.7766,"ARG_OF_PERICENTER":101.4426,"MEAN_ANOMALY":258.6675,"EPHEMERIS_TYPE":0,"CLASSIFICATION_TYPE":"U","NORAD_CAT_ID":65925,"ELEMENT_SET_NO":999,"REV_AT_EPOCH":2667,"BSTAR":0.00019492,"MEAN_MOTION_DOT":5.418e-5,"MEAN_MOTION_DDOT":0},{"OBJECT_NAME":"STARLINK-35492","OBJECT_ID":"2025-225S","EPOCH":"2026-03-24T07:58:49.881792","MEAN_MOTION":15.30192049,"ECCENTRICITY":0.0001132,"INCLINATION":53.1587,"RA_OF_ASC_NODE":97.4011,"ARG_OF_PERICENTER":81.4375,"MEAN_ANOMALY":278.6754,"EPHEMERIS_TYPE":0,"CLASSIFICATION_TYPE":"U","NORAD_CAT_ID":65926,"ELEMENT_SET_NO":999,"REV_AT_EPOCH":2665,"BSTAR":0.00054276,"MEAN_MOTION_DOT":0.00015746,"MEAN_MOTION_DDOT":0},{"OBJECT_NAME":"STARLINK-35494","OBJECT_ID":"2025-225T","EPOCH":"2026-03-24T10:47:20.641344","MEAN_MOTION":15.30209863,"ECCENTRICITY":0.0001442,"INCLINATION":53.1591,"RA_OF_ASC_NODE":97.4208,"ARG_OF_PERICENTER":77.809,"MEAN_ANOMALY":282.3072,"EPHEMERIS_TYPE":0,"CLASSIFICATION_TYPE":"U","NORAD_CAT_ID":65927,"ELEMENT_SET_NO":999,"REV_AT_EPOCH":2666,"BSTAR":0.00045398,"MEAN_MOTION_DOT":0.00013114,"MEAN_MOTION_DDOT":0},{"OBJECT_NAME":"STARLINK-35493","OBJECT_ID":"2025-225U","EPOCH":"2026-03-24T07:16:26.817888","MEAN_MOTION":15.30219368,"ECCENTRICITY":0.0001707,"INCLINATION":53.1598,"RA_OF_ASC_NODE":97.9271,"ARG_OF_PERICENTER":91.7681,"MEAN_ANOMALY":268.3515,"EPHEMERIS_TYPE":0,"CLASSIFICATION_TYPE":"U","NORAD_CAT_ID":65928,"ELEMENT_SET_NO":999,"REV_AT_EPOCH":2664,"BSTAR":0.00059109,"MEAN_MOTION_DOT":0.00017198,"MEAN_MOTION_DDOT":0},{"OBJECT_NAME":"STARLINK-35175","OBJECT_ID":"2025-225V","EPOCH":"2026-03-24T08:30:45.024192","MEAN_MOTION":15.30199378,"ECCENTRICITY":0.0001472,"INCLINATION":53.1594,"RA_OF_ASC_NODE":97.5397,"ARG_OF_PERICENTER":75.0895,"MEAN_ANOMALY":285.0268,"EPHEMERIS_TYPE":0,"CLASSIFICATION_TYPE":"U","NORAD_CAT_ID":65929,"ELEMENT_SET_NO":999,"REV_AT_EPOCH":2665,"BSTAR":0.00040033,"MEAN_MOTION_DOT":0.00011516,"MEAN_MOTION_DDOT":0},{"OBJECT_NAME":"STARLINK-35513","OBJECT_ID":"2025-225W","EPOCH":"2026-03-24T10:29:06.678240","MEAN_MOTION":15.30223738,"ECCENTRICITY":0.0001464,"INCLINATION":53.1603,"RA_OF_ASC_NODE":97.3418,"ARG_OF_PERICENTER":93.222,"MEAN_ANOMALY":266.8948,"EPHEMERIS_TYPE":0,"CLASSIFICATION_TYPE":"U","NORAD_CAT_ID":65930,"ELEMENT_SET_NO":999,"REV_AT_EPOCH":2666,"BSTAR":0.00062874,"MEAN_MOTION_DOT":0.00018322,"MEAN_MOTION_DDOT":0},{"OBJECT_NAME":"STARLINK-35526","OBJECT_ID":"2025-225X","EPOCH":"2026-03-24T08:26:11.855040","MEAN_MOTION":15.30210946,"ECCENTRICITY":0.0001353,"INCLINATION":53.1595,"RA_OF_ASC_NODE":97.5206,"ARG_OF_PERICENTER":86.5988,"MEAN_ANOMALY":273.5168,"EPHEMERIS_TYPE":0,"CLASSIFICATION_TYPE":"U","NORAD_CAT_ID":65931,"ELEMENT_SET_NO":999,"REV_AT_EPOCH":2665,"BSTAR":0.00043128,"MEAN_MOTION_DOT":0.0001244,"MEAN_MOTION_DDOT":0},{"OBJECT_NAME":"STARLINK-35436","OBJECT_ID":"2025-225Y","EPOCH":"2026-03-24T08:21:38.317824","MEAN_MOTION":15.30206204,"ECCENTRICITY":0.0001204,"INCLINATION":53.1591,"RA_OF_ASC_NODE":97.5006,"ARG_OF_PERICENTER":96.6921,"MEAN_ANOMALY":263.4217,"EPHEMERIS_TYPE":0,"CLASSIFICATION_TYPE":"U","NORAD_CAT_ID":65932,"ELEMENT_SET_NO":999,"REV_AT_EPOCH":2665,"BSTAR":0.00038617,"MEAN_MOTION_DOT":0.00011098,"MEAN_MOTION_DDOT":0},{"OBJECT_NAME":"STARLINK-35192","OBJECT_ID":"2025-225Z","EPOCH":"2026-03-24T10:45:49.724352","MEAN_MOTION":15.30220925,"ECCENTRICITY":0.0001447,"INCLINATION":53.1594,"RA_OF_ASC_NODE":97.4132,"ARG_OF_PERICENTER":84.778,"MEAN_ANOMALY":275.3386,"EPHEMERIS_TYPE":0,"CLASSIFICATION_TYPE":"U","NORAD_CAT_ID":65933,"ELEMENT_SET_NO":999,"REV_AT_EPOCH":2666,"BSTAR":0.00066123,"MEAN_MOTION_DOT":0.00019288,"MEAN_MOTION_DDOT":0},{"OBJECT_NAME":"STARLINK-33921","OBJECT_ID":"2025-225AA","EPOCH":"2026-03-24T05:04:23.948256","MEAN_MOTION":15.3019061,"ECCENTRICITY":0.0001237,"INCLINATION":53.1591,"RA_OF_ASC_NODE":98.0666,"ARG_OF_PERICENTER":96.3561,"MEAN_ANOMALY":263.7581,"EPHEMERIS_TYPE":0,"CLASSIFICATION_TYPE":"U","NORAD_CAT_ID":65934,"ELEMENT_SET_NO":999,"REV_AT_EPOCH":2574,"BSTAR":0.00059723,"MEAN_MOTION_DOT":0.00017365,"MEAN_MOTION_DDOT":0},{"OBJECT_NAME":"STARLINK-35155","OBJECT_ID":"2025-225AB","EPOCH":"2026-03-24T10:27:35.729280","MEAN_MOTION":15.30221016,"ECCENTRICITY":0.000159,"INCLINATION":53.1606,"RA_OF_ASC_NODE":97.3339,"ARG_OF_PERICENTER":92.3967,"MEAN_ANOMALY":267.7215,"EPHEMERIS_TYPE":0,"CLASSIFICATION_TYPE":"U","NORAD_CAT_ID":65935,"ELEMENT_SET_NO":999,"REV_AT_EPOCH":2577,"BSTAR":0.00061502,"MEAN_MOTION_DOT":0.00017912,"MEAN_MOTION_DDOT":0},{"OBJECT_NAME":"STARLINK-35161","OBJECT_ID":"2025-225AC","EPOCH":"2026-03-24T10:41:14.395200","MEAN_MOTION":15.30165673,"ECCENTRICITY":0.0001774,"INCLINATION":53.1597,"RA_OF_ASC_NODE":97.3923,"ARG_OF_PERICENTER":93.0281,"MEAN_ANOMALY":267.0923,"EPHEMERIS_TYPE":0,"CLASSIFICATION_TYPE":"U","NORAD_CAT_ID":65936,"ELEMENT_SET_NO":999,"REV_AT_EPOCH":2577,"BSTAR":0.00049651,"MEAN_MOTION_DOT":0.00014359,"MEAN_MOTION_DDOT":0},{"OBJECT_NAME":"STARLINK-35473","OBJECT_ID":"2025-225AD","EPOCH":"2026-03-24T10:36:42.672384","MEAN_MOTION":15.30222424,"ECCENTRICITY":0.0001503,"INCLINATION":53.16,"RA_OF_ASC_NODE":97.3733,"ARG_OF_PERICENTER":78.8556,"MEAN_ANOMALY":281.2614,"EPHEMERIS_TYPE":0,"CLASSIFICATION_TYPE":"U","NORAD_CAT_ID":65937,"ELEMENT_SET_NO":999,"REV_AT_EPOCH":2577,"BSTAR":0.0006635,"MEAN_MOTION_DOT":0.00019357,"MEAN_MOTION_DDOT":0},{"OBJECT_NAME":"STARLINK-34849","OBJECT_ID":"2025-232A","EPOCH":"2026-03-24T04:30:54.733536","MEAN_MOTION":15.30200295,"ECCENTRICITY":0.0001086,"INCLINATION":53.1631,"RA_OF_ASC_NODE":36.6892,"ARG_OF_PERICENTER":86.8177,"MEAN_ANOMALY":273.2948,"EPHEMERIS_TYPE":0,"CLASSIFICATION_TYPE":"U","NORAD_CAT_ID":66005,"ELEMENT_SET_NO":999,"REV_AT_EPOCH":2564,"BSTAR":0.00076768,"MEAN_MOTION_DOT":0.00022446,"MEAN_MOTION_DDOT":0},{"OBJECT_NAME":"STARLINK-35336","OBJECT_ID":"2025-232B","EPOCH":"2026-03-24T03:24:02.791008","MEAN_MOTION":15.30200156,"ECCENTRICITY":0.00013162,"INCLINATION":53.1615,"RA_OF_ASC_NODE":36.3961,"ARG_OF_PERICENTER":88.9315,"MEAN_ANOMALY":271.1836,"EPHEMERIS_TYPE":0,"CLASSIFICATION_TYPE":"U","NORAD_CAT_ID":66006,"ELEMENT_SET_NO":999,"REV_AT_EPOCH":2564,"BSTAR":0.00092752513,"MEAN_MOTION_DOT":0.00027212,"MEAN_MOTION_DDOT":0}]
